ORBCOMM FM05 [-]        
1 25117U 97084F   24058.46964852  .00002139  00000+0  68588-3 0  9999
2 25117  45.0146 125.3834 0002912 310.2860  49.7735 14.42242206372787
ORBCOMM FM06 [+]        
1 25118U 97084G   24058.50151080  .00002411  00000+0  76735-3 0  9992
2 25118  45.0137 125.4124 0002119 302.7568  72.2320 14.42241024372789
ORBCOMM FM07 [-]        
1 25119U 97084H   24058.00118849  .00002336  00000+0  74596-3 0  9993
2 25119  45.0134 128.2973 0003825 306.8136  53.2363 14.42168587372701
ORBCOMM FM03 [-]        
1 25158U 98007B   24057.47248337  .00001490  00000+0  59744-3 0  9996
2 25158 107.9782 238.1775 0047110 358.3843   1.7137 14.31877379355740
ORBCOMM FM04 [+]        
1 25159U 98007C   24057.47438567  .00001609  00000+0  63955-3 0  9994
2 25159 107.9768 241.0702 0042767 355.9719   4.1070 14.32132479355914
ORBCOMM FM17 [-]        
1 25413U 98046A   24058.14954607  .00001509  00000+0  59892-3 0  9997
2 25413  44.9966 340.2376 0003365 343.0911  16.9823 14.32857049335012
ORBCOMM FM18 [-]        
1 25414U 98046B   24057.72580382  .00001765  00000+0  65632-3 0  9999
2 25414  44.9932 270.8619 0004375  46.8690 313.2523 14.35520585335710
ORBCOMM FM19 [+]        
1 25415U 98046C   24057.70368112  .00001723  00000+0  64400-3 0  9999
2 25415  44.9942 272.2793 0003225  38.6683  66.1149 14.35356660335679
